STARLINK-2454
1 18116C 21027AA  21326.18297892 -.00000226  00000-0 -15162-4 0  3267
2 18116  53.0529  12.9319 0001444  71.6250 310.9565 15.06397081    15
